[
    {
        "Altitude(m)": 557544.7340734877,
        "Argument of Periapsis(deg)": 0.013245982221427002,
        "Eccentricity": 0.0,
        "Inclination(deg)": 53.0,
        "Latitude(deg)": 42.758390029496695,
        "Longitude(deg)": 44.55780000133322,
        "Mean Anomaly(deg)": 122.00138573515517,
        "RAAN(deg)": 9.980286737056034,
        "Satellite Name": "Starlink Shell 1 50",
        "Satellite Number": 50,
        "Semi-Major Axis(m)": 6931778.249405717,
        "Time(s)": 380
    },
    {
        "Altitude(m)": 557464.6868442057,
        "Argument of Periapsis(deg)": 0.013594560700938237,
        "Eccentricity": 0.0,
        "Inclination(deg)": 53.0,
        "Latitude(deg)": 42.394560067173416,
        "Longitude(deg)": 45.20895019541728,
        "Mean Anomaly(deg)": 122.62821693871187,
        "RAAN(deg)": 9.97976796697856,
        "Satellite Name": "Starlink Shell 1 50",
        "Satellite Number": 50,
        "Semi-Major Axis(m)": 6931778.249405717,
        "Time(s)": 390
    },
    {
        "Altitude(m)": 557384.0728629685,
        "Argument of Periapsis(deg)": 0.013943139180449475,
        "Eccentricity": 0.0,
        "Inclination(deg)": 53.0,
        "Latitude(deg)": 42.026573060482676,
        "Longitude(deg)": 45.85210979656161,
        "Mean Anomaly(deg)": 123.2550481422686,
        "RAAN(deg)": 9.979249196901089,
        "Satellite Name": "Starlink Shell 1 50",
        "Satellite Number": 50,
        "Semi-Major Axis(m)": 6931778.249405717,
        "Time(s)": 400
    },
    {
        "Altitude(m)": 557302.9435341812,
        "Argument of Periapsis(deg)": 0.014291717659960712,
        "Eccentricity": 0.0,
        "Inclination(deg)": 53.0,
        "Latitude(deg)": 41.65452811417274,
        "Longitude(deg)": 46.48738539704313,
        "Mean Anomaly(deg)": 123.8818793458253,
        "RAAN(deg)": 9.978730426823613,
        "Satellite Name": "Starlink Shell 1 50",
        "Satellite Number": 50,
        "Semi-Major Axis(m)": 6931778.249405717,
        "Time(s)": 410
    },
    {
        "Altitude(m)": 557221.3507335837,
        "Argument of Periapsis(deg)": 0.014640296139471948,
        "Eccentricity": 0.0,
        "Inclination(deg)": 53.0,
        "Latitude(deg)": 41.278522478178864,
        "Longitude(deg)": 47.11488573082801,
        "Mean Anomaly(deg)": 124.50871054938202,
        "RAAN(deg)": 9.978211656746142,
        "Satellite Name": "Starlink Shell 1 50",
        "Satellite Number": 50,
        "Semi-Major Axis(m)": 6931778.249405717,
        "Time(s)": 420
    },
    {
        "Altitude(m)": 557139.3467820778,
        "Argument of Periapsis(deg)": 0.014988874618983185,
        "Eccentricity": 0.0,
        "Inclination(deg)": 53.0,
        "Latitude(deg)": 40.898651541950606,
        "Longitude(deg)": 47.73472185445434,
        "Mean Anomaly(deg)": 125.13554175293875,
        "RAAN(deg)": 9.97769288666867,
        "Satellite Name": "Starlink Shell 1 50",
        "Satellite Number": 50,
        "Semi-Major Axis(m)": 6931778.249405717,
        "Time(s)": 430
    },
    {
        "Altitude(m)": 557056.9844193124,
        "Argument of Periapsis(deg)": 0.015337453098494424,
        "Eccentricity": 0.0,
        "Inclination(deg)": 53.0,
        "Latitude(deg)": 40.515008833208356,
        "Longitude(deg)": 48.347007346034175,
        "Mean Anomaly(deg)": 125.76237295649545,
        "RAAN(deg)": 9.977174116591197,
        "Satellite Name": "Starlink Shell 1 50",
        "Satellite Number": 50,
        "Semi-Major Axis(m)": 6931778.249405717,
        "Time(s)": 440
    },
    {
        "Altitude(m)": 556974.3167770064,
        "Argument of Periapsis(deg)": 0.01568603157800566,
        "Eccentricity": 0.0,
        "Inclination(deg)": 53.0,
        "Latitude(deg)": 40.1276860207705,
        "Longitude(deg)": 48.9518570091459,
        "Mean Anomaly(deg)": 126.38920416005217,
        "RAAN(deg)": 9.976655346513724,
        "Satellite Name": "Starlink Shell 1 50",
        "Satellite Number": 50,
        "Semi-Major Axis(m)": 6931778.249405717,
        "Time(s)": 450
    },
    {
        "Altitude(m)": 556891.3973520562,
        "Argument of Periapsis(deg)": 0.0160346100575169,
        "Eccentricity": 0.0,
        "Inclination(deg)": 53.0,
        "Latitude(deg)": 39.73677292111513,
        "Longitude(deg)": 49.549387106945616,
        "Mean Anomaly(deg)": 127.01603536360888,
        "RAAN(deg)": 9.97613657643625,
        "Satellite Name": "Starlink Shell 1 50",
        "Satellite Number": 50,
        "Semi-Major Axis(m)": 6931778.249405717,
        "Time(s)": 460
    },
    {
        "Altitude(m)": 556808.2799794029,
        "Argument of Periapsis(deg)": 0.016383188537028134,
        "Eccentricity": 0.0,
        "Inclination(deg)": 53.0,
        "Latitude(deg)": 39.342357508348925,
        "Longitude(deg)": 50.13971561315154,
        "Mean Anomaly(deg)": 127.6428665671656,
        "RAAN(deg)": 9.975617806358779,
        "Satellite Name": "Starlink Shell 1 50",
        "Satellite Number": 50,
        "Semi-Major Axis(m)": 6931778.249405717,
        "Time(s)": 470
    },
    {
        "Altitude(m)": 556725.0188047073,
        "Argument of Periapsis(deg)": 0.01673176701653937,
        "Eccentricity": 0.0,
        "Inclination(deg)": 53.0,
        "Latitude(deg)": 38.944525927271606,
        "Longitude(deg)": 50.722960966512694,
        "Mean Anomaly(deg)": 128.26969777072233,
        "RAAN(deg)": 9.975099036281307,
        "Satellite Name": "Starlink Shell 1 50",
        "Satellite Number": 50,
        "Semi-Major Axis(m)": 6931778.249405717,
        "Time(s)": 480
    },
    {
        "Altitude(m)": 556641.6682568283,
        "Argument of Periapsis(deg)": 0.017080345496050607,
        "Eccentricity": 0.0,
        "Inclination(deg)": 53.0,
        "Latitude(deg)": 38.54336250924725,
        "Longitude(deg)": 51.2992423539624,
        "Mean Anomaly(deg)": 128.89652897427905,
        "RAAN(deg)": 9.974580266203832,
        "Satellite Name": "Starlink Shell 1 50",
        "Satellite Number": 50,
        "Semi-Major Axis(m)": 6931778.249405717,
        "Time(s)": 490
    },
    {
        "Altitude(m)": 556558.2830201021,
        "Argument of Periapsis(deg)": 0.017428923975561842,
        "Eccentricity": 0.0,
        "Inclination(deg)": 53.0,
        "Latitude(deg)": 38.1389497906031,
        "Longitude(deg)": 51.86868000900718,
        "Mean Anomaly(deg)": 129.52336017783574,
        "RAAN(deg)": 9.97406149612636,
        "Satellite Name": "Starlink Shell 1 50",
        "Satellite Number": 50,
        "Semi-Major Axis(m)": 6931778.249405717,
        "Time(s)": 500
    },
    {
        "Altitude(m)": 556474.9180064774,
        "Argument of Periapsis(deg)": 0.01777750245507308,
        "Eccentricity": 0.0,
        "Inclination(deg)": 53.0,
        "Latitude(deg)": 37.731368533292716,
        "Longitude(deg)": 52.431394011883235,
        "Mean Anomaly(deg)": 130.15019138139246,
        "RAAN(deg)": 9.973542726048885,
        "Satellite Name": "Starlink Shell 1 50",
        "Satellite Number": 50,
        "Semi-Major Axis(m)": 6931778.249405717,
        "Time(s)": 510
    },
    {
        "Altitude(m)": 556391.6283274726,
        "Argument of Periapsis(deg)": 0.018126080934584315,
        "Eccentricity": 0.0,
        "Inclination(deg)": 53.0,
        "Latitude(deg)": 37.320697747582834,
        "Longitude(deg)": 52.987504616621635,
        "Mean Anomaly(deg)": 130.77702258494918,
        "RAAN(deg)": 9.973023955971414,
        "Satellite Name": "Starlink Shell 1 50",
        "Satellite Number": 50,
        "Semi-Major Axis(m)": 6931778.249405717,
        "Time(s)": 520
    },
    {
        "Altitude(m)": 556308.4692660088,
        "Argument of Periapsis(deg)": 0.018474659414095554,
        "Eccentricity": 0.0,
        "Inclination(deg)": 53.0,
        "Latitude(deg)": 36.90701471653046,
        "Longitude(deg)": 53.537132591536235,
        "Mean Anomaly(deg)": 131.4038537885059,
        "RAAN(deg)": 9.972505185893942,
        "Satellite Name": "Starlink Shell 1 50",
        "Satellite Number": 50,
        "Semi-Major Axis(m)": 6931778.249405717,
        "Time(s)": 530
    },
    {
        "Altitude(m)": 556225.4962480892,
        "Argument of Periapsis(deg)": 0.018823237893606792,
        "Eccentricity": 0.0,
        "Inclination(deg)": 53.0,
        "Latitude(deg)": 36.490395022035166,
        "Longitude(deg)": 54.080398059640736,
        "Mean Anomaly(deg)": 132.0306849920626,
        "RAAN(deg)": 9.971986415816469,
        "Satellite Name": "Starlink Shell 1 50",
        "Satellite Number": 50,
        "Semi-Major Axis(m)": 6931778.249405717,
        "Time(s)": 540
    },
    {
        "Altitude(m)": 556142.7648143958,
        "Argument of Periapsis(deg)": 0.019171816373118027,
        "Eccentricity": 0.0,
        "Inclination(deg)": 53.0,
        "Latitude(deg)": 36.070912572268206,
        "Longitude(deg)": 54.61742086413309,
        "Mean Anomaly(deg)": 132.65751619561934,
        "RAAN(deg)": 9.971467645738995,
        "Satellite Name": "Starlink Shell 1 50",
        "Satellite Number": 50,
        "Semi-Major Axis(m)": 6931778.249405717,
        "Time(s)": 550
    },
    {
        "Altitude(m)": 556060.3305917537,
        "Argument of Periapsis(deg)": 0.019520394852629266,
        "Eccentricity": 0.0,
        "Inclination(deg)": 53.0,
        "Latitude(deg)": 35.64863963029153,
        "Longitude(deg)": 55.14832094546179,
        "Mean Anomaly(deg)": 133.28434739917608,
        "RAAN(deg)": 9.970948875661524,
        "Satellite Name": "Starlink Shell 1 50",
        "Satellite Number": 50,
        "Semi-Major Axis(m)": 6931778.249405717,
        "Time(s)": 560
    }
]